0 FENGYUN 1C DEB
1 30327U 99025AAN 13281.40927932  .00001634  00000-0  11382-2 0  2096
2 30327 098.4126 077.0419 0144125 108.3522 307.2195 13.95015946340819
0 FENGYUN 1C DEB
1 30327U 99025AAN 13282.41344277  .00001960  00000-0  13597-2 0  2107
2 30327 098.4116 077.9577 0144188 105.5559 310.1920 13.95022585340951
0 FENGYUN 1C DEB
1 30327U 99025AAN 13285.94218656  .00002351  00000-0  16258-2 0  2123
2 30327 098.4111 081.1782 0144121 095.7200 031.9027 13.95034962341444
0 FENGYUN 1C DEB
1 30327U 99025AAN 13286.94637971  .00002599  00000-0  17949-2 0  2132
2 30327 098.4111 082.0947 0144028 092.9087 035.1096 13.95038378341587
0 FENGYUN 1C DEB
1 30327U 99025AAN 13290.36982038  .00002714  00000-0  18731-2 0  2140
2 30327 098.4122 085.2191 0143612 083.3069 308.2855 13.95059304342060
0 FENGYUN 1C DEB
1 30327U 99025AAN 13291.37951661  .00002450  00000-0  16941-2 0  2159
2 30327 098.4122 086.1403 0143348 080.4317 339.2620 13.95064627342200
0 FENGYUN 1C DEB
1 30327U 99025AAN 13292.90470181  .00002383  00000-0  16478-2 0  2163
2 30327 098.4128 087.5333 0143456 076.2702 079.0295 13.95072554342412
0 FENGYUN 1C DEB
1 30327U 99025AAN 13294.39241271  .00002485  00000-0  17174-2 0  2172
2 30327 098.4132 088.8916 0143312 072.1300 350.7116 13.95078567342622
0 FENGYUN 1C DEB
1 30327U 99025AAN 13295.39479767  .00002568  00000-0  17737-2 0  2184
2 30327 098.4121 089.8048 0143409 069.4629 344.8570 13.95083485342765
